NORAD_CAT_ID,OBJECT_NAME,OBJECT_TYPE,EPOCH,MEAN_MOTION,ECCENTRICITY,INCLINATION,RA_OF_ASC_NODE,ARG_OF_PERICENTER,MEAN_ANOMALY,BSTAR,MEAN_MOTION_DOT,MEAN_MOTION_DDOT,TLE_LINE0,TLE_LINE1,TLE_LINE2,SEMIMAJOR_AXIS,PERIOD,APOGEE,PERIGEE,DECAYED
51871.0,STARLINK-3567,PAYLOAD,2022-08-20 06:00:00,15.08839463,0.0001921,53.2179,73.5645,72.184,2.1741,-0.0015555999999999,-0.0002496,0.0,0 STARLINK-3567,1 51871U 22022V   22232.25001157 -.00024960  00000-0 -15556-2 0  9999,2 51871  53.2179  73.5645 0001921  72.1840   2.1741 15.08839463 27298,6917.882,95.438,541.076,538.418,0.0
51871.0,STARLINK-3567,PAYLOAD,2022-08-20 14:00:01,15.08835352,0.0001942,53.2183,72.0676,76.8896,9.0508,0.00089886,0.00014044,0.0,0 STARLINK-3567,1 51871U 22022V   22232.58334491  .00014044  00000-0  89886-3 0  9993,2 51871  53.2183  72.0676 0001942  76.8896   9.0508 15.08835352  1300,6917.895,95.438,541.1030000000002,538.4159999999998,0.0
51871.0,STARLINK-3567,PAYLOAD,2022-08-20 22:00:00,15.08828504,0.0002013,53.2183,70.5731,70.3326,27.2066,0.0014416,0.00022722,0.0,0 STARLINK-3567,1 51871U 22022V   22232.91667824  .00022722  00000-0  14416-2 0  9997,2 51871  53.2183  70.5731 0002013  70.3326  27.2066 15.08828504  1304,6917.916,95.438,541.173,538.388,0.0
51871.0,STARLINK-3567,PAYLOAD,2022-08-21 14:00:01,15.08833389,0.0001831999999999,53.2187,67.5788,77.4492,43.2773,-0.00023075,-3.958e-05,0.0,0 STARLINK-3567,1 51871U 22022V   22233.58334491 -.00003958  00000-0 -23075-3 0  9996,2 51871  53.2187  67.5788 0001832  77.4492  43.2773 15.08833389  1306,6917.901,95.438,541.033,538.498,0.0
51871.0,STARLINK-3567,PAYLOAD,2022-08-21 22:00:00,15.0881228,0.0001883,53.2185,66.0843,70.0564,62.2588,0.0017465,0.00027596,0.0,0 STARLINK-3567,1 51871U 22022V   22233.91667824  .00027596  00000-0  17465-2 0  9999,2 51871  53.2185  66.0843 0001883  70.0564  62.2588 15.08812280  1307,6917.965,95.439,541.133,538.5269999999998,0.0
51871.0,STARLINK-3567,PAYLOAD,2022-08-22 12:00:00,15.08823579,0.0001788,53.2185,63.4638,79.3744,343.2058,0.0019575,0.00030989,0.0,0 STARLINK-3567,1 51871U 22022V   22234.50001157  .00030989  00000-0  19575-2 0  9990,2 51871  53.2185  63.4638 0001788  79.3744 343.2058 15.08823579  1303,6917.931,95.439,541.033,538.559,0.0
51871.0,STARLINK-3567,PAYLOAD,2022-08-22 22:00:00,15.0882155,0.0001844999999999,53.2184,61.5955,71.3422,95.7325,0.0021163,0.00033537,0.0,0 STARLINK-3567,1 51871U 22022V   22234.91667824  .00033537  00000-0  21163-2 0  9992,2 51871  53.2184  61.5955 0001845  71.3422  95.7325 15.08821550  1305,6917.937,95.439,541.078,538.525,0.0
51871.0,STARLINK-3567,PAYLOAD,2022-08-23 14:00:01,15.08855678,0.0001784,53.2182,58.6014,81.0623,109.1908,-0.00072902,-0.00011877,0.0,0 STARLINK-3567,1 51871U 22022V   22235.58334491 -.00011877  00000-0 -72902-3 0  9990,2 51871  53.2182  58.6014 0001784  81.0623 109.1908 15.08855678 27795,6917.831999999999,95.437,540.932,538.4630000000002,0.0
51871.0,STARLINK-3567,PAYLOAD,2022-08-23 22:00:01,15.08828402,0.0001805,53.2179,57.1065,73.0971,128.8322,0.0019865,0.00031459,0.0,0 STARLINK-3567,1 51871U 22022V   22235.91668981  .00031459  00000-0  19865-2 0  9995,2 51871  53.2179  57.1065 0001805  73.0971 128.8322 15.08828402  1304,6917.916,95.438,541.03,538.5319999999998,0.0
51871.0,STARLINK-3567,PAYLOAD,2022-08-24 14:00:01,15.08836787,0.000167,53.2176,54.1124,81.8373,143.2067,-0.0010404,-0.00016806,0.0,0 STARLINK-3567,1 51871U 22022V   22236.58334491 -.00016806  00000-0 -10404-2 0  9996,2 51871  53.2176  54.1124 0001670  81.8373 143.2067 15.08836787  1309,6917.89,95.438,540.91,538.6,0.0
51871.0,STARLINK-3567,PAYLOAD,2022-08-24 16:00:00,15.08839611,0.000167,53.2175,53.7387,78.9555,238.9844,-0.0017223,-0.00027594,0.0,0 STARLINK-3567,1 51871U 22022V   22236.66667824 -.00027594  00000-0 -17223-2 0  9996,2 51871  53.2175  53.7387 0001670  78.9555 238.9844 15.08839611 27956,6917.882,95.438,540.9019999999998,538.591,0.0
51871.0,STARLINK-3567,PAYLOAD,2022-08-24 22:00:00,15.08804461,0.0001704,53.2174,52.6174,73.1227,163.5114,0.0027453,0.00043632,0.0,0 STARLINK-3567,1 51871U 22022V   22236.91667824  .00043632  00000-0  27453-2 0  9999,2 51871  53.2174  52.6174 0001704  73.1227 163.5114 15.08804461  1307,6917.989000000001,95.44,541.033,538.675,0.0
51871.0,STARLINK-3567,PAYLOAD,2022-08-25 06:00:02,15.08824031,0.0001618,53.2173,51.1192,79.5487,168.7221,0.00017879,2.557e-05,0.0,0 STARLINK-3567,1 51871U 22022V   22237.25002315  .00002557  00000-0  17879-3 0  9998,2 51871  53.2173  51.1192 0001618  79.5487 168.7221 15.08824031 28043,6917.929,95.439,540.914,538.675,0.0
51871.0,STARLINK-3567,PAYLOAD,2022-08-25 14:00:01,15.08844562,0.0001443999999999,53.2173,49.6233,80.0349,179.709,-0.0012614,-0.00020309,0.0,0 STARLINK-3567,1 51871U 22022V   22237.58334491 -.00020309  00000-0 -12614-2 0  9995,2 51871  53.2173  49.6233 0001444  80.0349 179.7090 15.08844562  1309,6917.866,95.437,540.73,538.7330000000002,0.0
51871.0,STARLINK-3567,PAYLOAD,2022-08-25 22:00:00,15.08811513,0.0001485,53.2173,48.1283,69.9691,201.3737,0.0028640999999999,0.00045553,0.0,0 STARLINK-3567,1 51871U 22022V   22237.91667824  .00045553  00000-0  28641-2 0  9994,2 51871  53.2173  48.1283 0001485  69.9691 201.3737 15.08811513  1309,6917.967,95.439,540.86,538.805,0.0
51871.0,STARLINK-3567,PAYLOAD,2022-08-26 14:00:01,15.08855949,0.0001469,53.2175,45.1339,78.1046,216.47,-0.0013566,-0.00021823,0.0,0 STARLINK-3567,1 51871U 22022V   22238.58335648 -.00021823  00000-0 -13566-2 0  9990,2 51871  53.2175  45.1339 0001469  78.1046 216.4700 15.08855949 28248,6917.831999999999,95.437,540.7130000000002,538.68,0.0
51871.0,STARLINK-3567,PAYLOAD,2022-08-26 22:00:00,15.08824562,0.000151,53.2175,43.6389,68.7299,237.3923,0.0029275,0.00046592,0.0,0 STARLINK-3567,1 51871U 22022V   22238.91667824  .00046592  00000-0  29275-2 0  9993,2 51871  53.2175  43.6389 0001510  68.7299 237.3923 15.08824562  1302,6917.928000000001,95.439,540.837,538.748,0.0
51871.0,STARLINK-3567,PAYLOAD,2022-08-27 14:00:01,15.08870704,0.0001486999999999,53.2181,40.6446,75.8969,253.4239,-0.0014611,-0.00023486,0.0,0 STARLINK-3567,1 51871U 22022V   22239.58334491 -.00023486  00000-0 -14611-2 0  9995,2 51871  53.2181  40.6446 0001487  75.8969 253.4239 15.08870704  1304,6917.7869999999975,95.436,540.68,538.623,0.0
51871.0,STARLINK-3567,PAYLOAD,2022-08-27 22:00:00,15.08853164,0.0001471,53.2181,39.1494,66.957,273.9879,0.00022527,3.3e-05,0.0,0 STARLINK-3567,1 51871U 22022V   22239.91667824  .00003300  00000-0  22527-3 0  9998,2 51871  53.2181  39.1494 0001471  66.9570 273.9879 15.08853164 28444,6917.84,95.437,540.7230000000002,538.688,0.0
51871.0,STARLINK-3567,PAYLOAD,2022-08-28 14:00:01,15.08861686,0.0001383,53.2188,36.1555,73.3469,290.8067,-0.0015672,-0.00025158,0.0,0 STARLINK-3567,1 51871U 22022V   22240.58334491 -.00025158  00000-0 -15672-2 0  9993,2 51871  53.2188  36.1555 0001383  73.3469 290.8067 15.08861686  1308,6917.814,95.436,540.636,538.722,0.0
51871.0,STARLINK-3567,PAYLOAD,2022-08-28 22:00:00,15.08842826,0.0001436,53.2185,34.6602,65.4926,310.2709,0.00084467,0.00013181,0.0,0 STARLINK-3567,1 51871U 22022V   22240.91667824  .00013181  00000-0  84467-3 0  9999,2 51871  53.2185  34.6602 0001436  65.4926 310.2709 15.08842826 28595,6917.871999999999,95.437,540.73,538.743,0.0
51871.0,STARLINK-3567,PAYLOAD,2022-08-29 14:00:01,15.08839996,0.0001504,53.2178,31.6668,74.8422,324.1027,-0.001829,-0.00029279,0.0,0 STARLINK-3567,1 51871U 22022V   22241.58334491 -.00029279  00000-0 -18290-2 0  9991,2 51871  53.2178  31.6668 0001504  74.8422 324.1027 15.08839996  1308,6917.88,95.438,540.786,538.705,0.0
51871.0,STARLINK-3567,PAYLOAD,2022-08-29 22:00:00,15.08818583,0.0001501999999999,53.2168,30.1712,67.4622,343.0703,0.0019833999999999,0.000314,0.0,0 STARLINK-3567,1 51871U 22022V   22241.91667824  .00031400  00000-0  19834-2 0  9999,2 51871  53.2168  30.1712 0001502  67.4622 343.0703 15.08818583  1309,6917.946,95.439,540.85,538.7719999999998,0.0
51871.0,STARLINK-3567,PAYLOAD,2022-08-30 06:00:00,15.08813531,0.0001385999999999,53.2171,28.6732,78.0396,344.0846,0.0028338,0.00045068,0.0,0 STARLINK-3567,1 51871U 22022V   22242.25001157  .00045068  00000-0  28338-2 0  9992,2 51871  53.2171  28.6732 0001386  78.0396 344.0846 15.08813531 28804,6917.9609999999975,95.439,540.785,538.867,0.0
51871.0,STARLINK-3567,PAYLOAD,2022-08-30 14:00:01,15.08855954,0.0001457,53.2172,27.1781,75.0167,358.6822,-0.0016965,-0.00027198,0.0,0 STARLINK-3567,1 51871U 22022V   22242.58334491 -.00027198  00000-0 -16965-2 0  9997,2 51871  53.2172  27.1781 0001457  75.0167 358.6822 15.08855954  1301,6917.831999999999,95.437,540.705,538.689,0.0
51871.0,STARLINK-3567,PAYLOAD,2022-08-30 22:00:00,15.08848297,0.0001416,53.2168,25.6824,67.2146,18.0851,-0.0011527,-0.0001859,0.0,0 STARLINK-3567,1 51871U 22022V   22242.91667824 -.00018590  00000-0 -11527-2 0  9998,2 51871  53.2168  25.6824 0001416  67.2146  18.0851 15.08848297 28908,6917.855,95.437,540.7,538.74,0.0
51871.0,STARLINK-3567,PAYLOAD,2022-08-31 14:00:01,15.08851928,0.000154,53.2171,22.6806,75.5048,32.9776,-0.0031327,-0.00049817,0.0,0 STARLINK-3567,1 51871U 22022V   22243.58334491 -.00049817  00000-0 -31327-2 0  9999,2 51871  53.2171  22.6806 0001540  75.5048  32.9776 15.08851928  1301,6917.844,95.437,540.774,538.644,0.0
51871.0,STARLINK-3567,PAYLOAD,2022-08-31 22:00:00,15.08829288,0.0001548,53.2165,21.1935,70.7235,49.3412,0.00095982,0.00015016,0.0,0 STARLINK-3567,1 51871U 22022V   22243.91667824  .00015016  00000-0  95982-3 0  9995,2 51871  53.2165  21.1935 0001548  70.7235  49.3412 15.08829288 29059,6917.913000000001,95.438,540.849,538.707,0.0
51871.0,STARLINK-3567,PAYLOAD,2022-09-01 14:00:01,15.08851041,0.000159,53.2171,18.1887,75.7148,67.6037,-0.0032,-0.00050872,0.0,0 STARLINK-3567,1 51871U 22022V   22244.58335648 -.00050872  00000-0 -32000-2 0  9997,2 51871  53.2171  18.1887 0001590  75.7148  67.6037 15.08851041  1309,6917.847,95.437,540.812,538.612,0.0
